[{"OBJECT_NAME":"STARLINK-5364","OBJECT_ID":"2023-015AU","EPOCH":"2026-03-09T09:43:42.168288","MEAN_MOTION":15.02533328,"ECCENTRICITY":0.00010022,"INCLINATION":43.0078,"RA_OF_ASC_NODE":314.3098,"ARG_OF_PERICENTER":282.5462,"MEAN_ANOMALY":77.5269,"EPHEMERIS_TYPE":0,"CLASSIFICATION_TYPE":"U","NORAD_CAT_ID":55491,"ELEMENT_SET_NO":999,"REV_AT_EPOCH":17086,"BSTAR":-4.0320208e-5,"MEAN_MOTION_DOT":-7.48e-6,"MEAN_MOTION_DDOT":0},{"OBJECT_NAME":"CZ-4B DEB","OBJECT_ID":"2010-051H","EPOCH":"2026-03-08T15:03:50.230080","MEAN_MOTION":14.83710316,"ECCENTRICITY":0.01132064,"INCLINATION":97.7035,"RA_OF_ASC_NODE":129.0061,"ARG_OF_PERICENTER":211.6401,"MEAN_ANOMALY":147.7975,"EPHEMERIS_TYPE":0,"CLASSIFICATION_TYPE":"U","NORAD_CAT_ID":38326,"ELEMENT_SET_NO":999,"REV_AT_EPOCH":80705,"BSTAR":0.001509593,"MEAN_MOTION_DOT":0.00013943,"MEAN_MOTION_DDOT":0}]
